{"type": "FeatureCollection", "features": [{"type": "Feature", "properties": {"i": 0}, "geometry": {"type": "Polygon", "coordinates": [[[-79.9500556, 40.4272738], [-79.9497165, 40.4275901], [-79.9491015, 40.427734], [-79.9488789, 40.4270685], [-79.9495397, 40.426928], [-79.9500556, 40.4272738]]]}}, {"type": "Feature", "properties": {"i": 1}, "geometry": {"type": "Polygon", "coordinates": [[[-79.9422545, 40.4460027], [-79.9416239, 40.4459841], [-79.941375, 40.445873], [-79.9411604, 40.4456183], [-79.9415981, 40.4448606], [-79.9417183, 40.4448606], [-79.9419585, 40.4444714], [-79.9429911, 40.4446357], [-79.9423624, 40.445727], [-79.9422545, 40.4460027]]]}}, {"type": "Feature", "properties": {"i": 2}, "geometry": {"type": "Polygon", "coordinates": [[[-79.9391116, 40.4456878], [-79.9384653, 40.4455595], [-79.9378966, 40.4455936], [-79.9377868, 40.4449003], [-79.9380447, 40.4448279], [-79.9384892, 40.4448135], [-79.9393377, 40.4449638], [-79.9393831, 40.4450214], [-79.9391116, 40.4456878]]]}}, {"type": "Feature", "properties": {"i": 3}, "geometry": {"type": "Polygon", "coordinates": [[[-79.9378966, 40.4455936], [-79.9384653, 40.4455595], [-79.9391116, 40.4456878], [-79.9389546, 40.4460886], [-79.9390481, 40.4468648], [-79.9378328, 40.4469629], [-79.9370575, 40.4473281], [-79.9363817, 40.4475311], [-79.9340086, 40.446858], [-79.9312021, 40.4456313], [-79.9358116, 40.4452532], [-79.9372036, 40.4446124], [-79.937273, 40.4448819], [-79.9373753, 40.4449912], [-79.9374918, 40.4450008], [-79.9377868, 40.4449003], [-79.9378966, 40.4455936]]]}}, {"type": "Feature", "properties": {"i": 4}, "geometry": {"type": "Polygon", "coordinates": [[[-79.9528226, 40.4316631], [-79.9532007, 40.4299379], [-79.9538063, 40.4294633], [-79.954237, 40.4297822], [-79.9537772, 40.4317976], [-79.9528226, 40.4316631]]]}}, {"type": "Feature", "properties": {"i": 5}, "geometry": {"type": "Polygon", "coordinates": [[[-79.9531267, 40.4302772], [-79.9528226, 40.4316631], [-79.9522768, 40.4316451], [-79.9526114, 40.4301661], [-79.9526679, 40.4302143], [-79.9531267, 40.4302772]]]}}, {"type": "Feature", "properties": {"i": 6}, "geometry": {"type": "Polygon", "coordinates": [[[-79.9617386, 40.4338591], [-79.9613787, 40.4343638], [-79.9613625, 40.4342967], [-79.9604493, 40.4339005], [-79.9607776, 40.4334473], [-79.9617386, 40.4338591]]]}}, {"type": "Feature", "properties": {"i": 7}, "geometry": {"type": "Polygon", "coordinates": [[[-79.9613787, 40.4343638], [-79.9617386, 40.4338591], [-79.9637007, 40.4344464], [-79.9632478, 40.4351135], [-79.9613787, 40.4343638]]]}}, {"type": "Feature", "properties": {"i": 8}, "geometry": {"type": "Polygon", "coordinates": [[[-79.9613787, 40.4343638], [-79.960766, 40.4352155], [-79.9597988, 40.4348068], [-79.9604493, 40.4339005], [-79.9613625, 40.4342967], [-79.9613787, 40.4343638]]]}}, {"type": "Feature", "properties": {"i": 9}, "geometry": {"type": "Polygon", "coordinates": [[[-79.960766, 40.4352155], [-79.9613787, 40.4343638], [-79.9620724, 40.4346505], [-79.9613251, 40.4356802], [-79.960766, 40.4352155]]]}}, {"type": "Feature", "properties": {"i": 10}, "geometry": {"type": "Polygon", "coordinates": [[[-79.9409421, 40.4513161], [-79.9397301, 40.4492452], [-79.9404411, 40.4491529], [-79.9426719, 40.4490066], [-79.9430274, 40.4508857], [-79.9409421, 40.4513161]]]}}, {"type": "Feature", "properties": {"i": 11}, "geometry": {"type": "Polygon", "coordinates": [[[-79.93995, 40.4496206], [-79.9409421, 40.4513161], [-79.9377641, 40.4523814], [-79.9367851, 40.4506941], [-79.93995, 40.4496206]]]}}, {"type": "Feature", "properties": {"i": 12}, "geometry": {"type": "Polygon", "coordinates": [[[-79.9393324, 40.4485681], [-79.93995, 40.4496206], [-79.9367851, 40.4506941], [-79.9361793, 40.4496419], [-79.9393324, 40.4485681]]]}}, {"type": "Feature", "properties": {"i": 13}, "geometry": {"type": "Polygon", "coordinates": [[[-79.9729431, 40.4467081], [-79.9733351, 40.4474078], [-79.9717124, 40.448096], [-79.9707249, 40.4462647], [-79.9691611, 40.4468204], [-79.967831, 40.4475463], [-79.9677689, 40.4475556], [-79.9674911, 40.4471148], [-79.9689605, 40.4460907], [-79.9705979, 40.4454746], [-79.9707806, 40.4454202], [-79.9710878, 40.4454691], [-79.9724491, 40.4457905], [-79.9726372, 40.4457535], [-79.973969, 40.4451794], [-79.9742457, 40.4461532], [-79.9729431, 40.4467081]]]}}, {"type": "Feature", "properties": {"i": 14}, "geometry": {"type": "Polygon", "coordinates": [[[-79.9733351, 40.4474078], [-79.9729431, 40.4467081], [-79.9742457, 40.4461532], [-79.9747236, 40.4468182], [-79.9733351, 40.4474078]]]}}, {"type": "Feature", "properties": {"i": 15}, "geometry": {"type": "Polygon", "coordinates": [[[-79.9733351, 40.4474078], [-79.9741741, 40.4489297], [-79.9733551, 40.4492763], [-79.9725076, 40.4477594], [-79.9733351, 40.4474078]]]}}, {"type": "Feature", "properties": {"i": 16}, "geometry": {"type": "Polygon", "coordinates": [[[-79.9741741, 40.4489297], [-79.9733351, 40.4474078], [-79.9743285, 40.4469858], [-79.9751521, 40.4485159], [-79.9741741, 40.4489297]]]}}, {"type": "Feature", "properties": {"i": 17}, "geometry": {"type": "Polygon", "coordinates": [[[-79.9390481, 40.4468648], [-79.9389546, 40.4460886], [-79.9393831, 40.4450214], [-79.9393377, 40.4449638], [-79.9384892, 40.4448135], [-79.9382209, 40.4448076], [-79.9374918, 40.4450008], [-79.9373753, 40.4449912], [-79.937273, 40.4448819], [-79.9372036, 40.4446124], [-79.9387864, 40.4439211], [-79.9412646, 40.4443478], [-79.9407394, 40.4452588], [-79.9400875, 40.4460102], [-79.9399931, 40.4462715], [-79.9400875, 40.4468267], [-79.9390481, 40.4468648]]]}}, {"type": "Feature", "properties": {"i": 18}, "geometry": {"type": "Polygon", "coordinates": [[[-79.9495397, 40.426928], [-79.9479589, 40.4258835], [-79.9480534, 40.42573], [-79.9485008, 40.4258061], [-79.9488463, 40.4259597], [-79.9501525, 40.4267898], [-79.9495397, 40.426928]]]}}, {"type": "Feature", "properties": {"i": 19}, "geometry": {"type": "Polygon", "coordinates": [[[-79.9713997, 40.4475097], [-79.9698913, 40.448149], [-79.9688433, 40.4469938], [-79.9691611, 40.4468204], [-79.9707249, 40.4462647], [-79.9713997, 40.4475097]]]}}, {"type": "Feature", "properties": {"i": 20}, "geometry": {"type": "Polygon", "coordinates": [[[-79.9698913, 40.448149], [-79.9713997, 40.4475097], [-79.9717124, 40.448096], [-79.9703123, 40.4486875], [-79.9698913, 40.448149]]]}}, {"type": "Feature", "properties": {"i": 21}, "geometry": {"type": "Polygon", "coordinates": [[[-79.961296, 40.4411375], [-79.9616305, 40.441316], [-79.9628195, 40.4419581], [-79.9622241, 40.4425705], [-79.9606895, 40.4418226], [-79.961296, 40.4411375]]]}}, {"type": "Feature", "properties": {"i": 22}, "geometry": {"type": "Polygon", "coordinates": [[[-79.9505198, 40.4462428], [-79.9506327, 40.4469734], [-79.951856, 40.4489974], [-79.9507475, 40.4498042], [-79.9489816, 40.4469408], [-79.9489127, 40.4463668], [-79.9505198, 40.4462428]]]}}, {"type": "Feature", "properties": {"i": 23}, "geometry": {"type": "Polygon", "coordinates": [[[-79.9615187, 40.4542074], [-79.9606144, 40.4534283], [-79.9584522, 40.4526919], [-79.9588141, 40.4520033], [-79.9622062, 40.4531506], [-79.9628865, 40.4532717], [-79.9615187, 40.4542074]]]}}, {"type": "Feature", "properties": {"i": 24}, "geometry": {"type": "Polygon", "coordinates": [[[-79.9584522, 40.4526919], [-79.9606144, 40.4534283], [-79.9615187, 40.4542074], [-79.9607907, 40.4547038], [-79.9600132, 40.4540409], [-79.9580863, 40.4533821], [-79.9584522, 40.4526919]]]}}, {"type": "Feature", "properties": {"i": 25}, "geometry": {"type": "Polygon", "coordinates": [[[-79.9748585, 40.4261734], [-79.9732569, 40.4260795], [-79.973293, 40.4256426], [-79.9749063, 40.425725], [-79.9748585, 40.4261734]]]}}, {"type": "Feature", "properties": {"i": 26}, "geometry": {"type": "Polygon", "coordinates": [[[-79.9732569, 40.4260795], [-79.9748585, 40.4261734], [-79.9748096, 40.4266118], [-79.9732107, 40.4265219], [-79.9732569, 40.4260795]]]}}, {"type": "Feature", "properties": {"i": 27}, "geometry": {"type": "Polygon", "coordinates": [[[-79.9520598, 40.4249316], [-79.9518931, 40.4255101], [-79.9518123, 40.4256407], [-79.9509091, 40.4265932], [-79.9504936509417, 40.42671092993135], [-79.9498377, 40.4256642], [-79.9508867, 40.4254656], [-79.9519219, 40.4249574], [-79.9520598, 40.4249316]]]}}, {"type": "Feature", "properties": {"i": 28}, "geometry": {"type": "Polygon", "coordinates": [[[-79.9421518, 40.4404419], [-79.9422539, 40.4401478], [-79.9427361, 40.4401676], [-79.9431929, 40.4400046], [-79.9441127, 40.4390865], [-79.9443343, 40.4389412], [-79.9447326, 40.4388134], [-79.9456872, 40.4386539], [-79.9462059, 40.4387944], [-79.9465131, 40.4389848], [-79.9467048, 40.4393867], [-79.9468112, 40.4399327], [-79.9469651, 40.4401904], [-79.9478678, 40.440679], [-79.9481911, 40.4407889], [-79.9472803, 40.441483], [-79.9470728, 40.4415035], [-79.9429814, 40.4406655], [-79.9421518, 40.4404419]], [[-79.9454628, 40.4393664], [-79.9455327, 40.4393191], [-79.9455482, 40.4392362], [-79.9454098, 40.4391446], [-79.9454628, 40.4393664]]]}}, {"type": "Feature", "properties": {"i": 29}, "geometry": {"type": "Polygon", "coordinates": [[[-79.9358996, 40.4545255], [-79.9364714, 40.4542612], [-79.9370119, 40.455182], [-79.9358948, 40.4555239], [-79.9354766, 40.4547994], [-79.9358996, 40.4545255]]]}}, {"type": "Feature", "properties": {"i": 30}, "geometry": {"type": "Polygon", "coordinates": [[[-79.9688969, 40.4405695], [-79.9690828, 40.4408538], [-79.9687701, 40.4410825], [-79.9685021, 40.4411559], [-79.9682087, 40.4409487], [-79.9684952, 40.4407279], [-79.9688969, 40.4405695]]]}}, {"type": "Feature", "properties": {"i": 31}, "geometry": {"type": "Polygon", "coordinates": [[[-79.9682087, 40.4409487], [-79.9685437, 40.4411579], [-79.9687701, 40.4410825], [-79.9690694, 40.440885], [-79.9690691, 40.4408083], [-79.9688647, 40.4404984], [-79.9682489, 40.4400926], [-79.9679831, 40.4399971], [-79.9676039, 40.4400194], [-79.9675084, 40.4396628], [-79.9675808, 40.4394941], [-79.9677289, 40.4393958], [-79.9682811, 40.4393687], [-79.9686268, 40.4394453], [-79.9692678, 40.4397107], [-79.9696106, 40.4399864], [-79.9697843, 40.4401933], [-79.9700403, 40.4407334], [-79.9699937, 40.4416583], [-79.9696816, 40.441666], [-79.9695414, 40.4417316], [-79.9681479, 40.442854], [-79.9660599, 40.4433626], [-79.9657479, 40.4428403], [-79.9682087, 40.4409487]]]}}, {"type": "Feature", "properties": {"i": 32}, "geometry": {"type": "Polygon", "coordinates": [[[-79.9426524, 40.4298298], [-79.941847, 40.4301019], [-79.9400991, 40.4298447], [-79.9400437, 40.4297646], [-79.9401167, 40.4295073], [-79.9411999, 40.4296708], [-79.9423825, 40.4293368], [-79.9426524, 40.4298298]]]}}, {"type": "Feature", "properties": {"i": 33}, "geometry": {"type": "Polygon", "coordinates": [[[-79.9728687, 40.4301209], [-79.9706517, 40.4299983], [-79.9707798, 40.4295529], [-79.9729139, 40.4296747], [-79.9728687, 40.4301209]]]}}, {"type": "Feature", "properties": {"i": 34}, "geometry": {"type": "Polygon", "coordinates": [[[-79.9729139, 40.4296747], [-79.9707798, 40.4295529], [-79.9709027, 40.4291106], [-79.9729513, 40.4292374], [-79.9729139, 40.4296747]]]}}, {"type": "Feature", "properties": {"i": 35}, "geometry": {"type": "Polygon", "coordinates": [[[-79.9553351, 40.4358946], [-79.9555878, 40.4348761], [-79.9564204, 40.4351309], [-79.9561276, 40.4359514], [-79.9553351, 40.4358946]]]}}, {"type": "Feature", "properties": {"i": 36}, "geometry": {"type": "Polygon", "coordinates": [[[-79.9555878, 40.4348761], [-79.9553351, 40.4358946], [-79.9543299, 40.4358219], [-79.9546016, 40.4345772], [-79.9555878, 40.4348761]]]}}, {"type": "Feature", "properties": {"i": 37}, "geometry": {"type": "Polygon", "coordinates": [[[-79.9670505, 40.4271002], [-79.9674823, 40.4262289], [-79.9687871, 40.4265894], [-79.9683857, 40.4274582], [-79.9670505, 40.4271002]]]}}, {"type": "Feature", "properties": {"i": 38}, "geometry": {"type": "Polygon", "coordinates": [[[-79.9674823, 40.4262289], [-79.9670505, 40.4271002], [-79.9669609, 40.4270814], [-79.9657441, 40.4262659], [-79.9664905, 40.4255955], [-79.9674823, 40.4262289]]]}}, {"type": "Feature", "properties": {"i": 39}, "geometry": {"type": "Polygon", "coordinates": [[[-79.9539075, 40.4363853], [-79.9529581, 40.4373217], [-79.952493, 40.4369517], [-79.952782, 40.4362153], [-79.9539075, 40.4363853]]]}}, {"type": "Feature", "properties": {"i": 40}, "geometry": {"type": "Polygon", "coordinates": [[[-79.9529581, 40.4373217], [-79.9539075, 40.4363853], [-79.9540975, 40.4364093], [-79.9549714, 40.4371036], [-79.9539378, 40.4381113], [-79.9529581, 40.4373217]]]}}, {"type": "Feature", "properties": {"i": 41}, "geometry": {"type": "Polygon", "coordinates": [[[-79.9501656, 40.4404017], [-79.9502456, 40.4404366], [-79.9525021, 40.4404634], [-79.9535457, 40.4404673], [-79.9536721, 40.4404238], [-79.9543545, 40.4408027], [-79.9540487, 40.4410027], [-79.9530147, 40.4413222], [-79.9527839, 40.4415666], [-79.9525243, 40.4420033], [-79.9522671, 40.4422662], [-79.9520353, 40.4423716], [-79.9517356, 40.4423881], [-79.9503485, 40.4419718], [-79.94922467589343, 40.44135687453713], [-79.9495615, 40.4408583], [-79.9501656, 40.4404017]]]}}, {"type": "Feature", "properties": {"i": 42}, "geometry": {"type": "Polygon", "coordinates": [[[-79.9592636, 40.4480625], [-79.9622764, 40.4486207], [-79.9616088, 40.4486551], [-79.9615429, 40.4487409], [-79.9594992, 40.4483545], [-79.9591762, 40.4483197], [-79.9587207, 40.44837], [-79.9589501, 40.4481174], [-79.9591622, 40.4477368], [-79.9595658, 40.4475589], [-79.9594192, 40.4477303], [-79.9592636, 40.4480625]]]}}, {"type": "Feature", "properties": {"i": 43}, "geometry": {"type": "Polygon", "coordinates": [[[-79.95678, 40.4511869], [-79.9570627, 40.4502221], [-79.9577523, 40.4489276], [-79.958365, 40.4485092], [-79.9587207, 40.44837], [-79.9591762, 40.4483197], [-79.9615429, 40.4487409], [-79.961512, 40.4489397], [-79.9595797, 40.4485877], [-79.9592819, 40.4485574], [-79.9589097, 40.4486166], [-79.9572326, 40.4514708], [-79.95678, 40.4511869]]]}}, {"type": "Feature", "properties": {"i": 44}, "geometry": {"type": "Polygon", "coordinates": [[[-79.9491015, 40.427734], [-79.9472405, 40.4275402], [-79.9468513, 40.4275119], [-79.9488789, 40.4270685], [-79.9491015, 40.427734]]]}}, {"type": "Feature", "properties": {"i": 45}, "geometry": {"type": "Polygon", "coordinates": [[[-79.9523927, 40.4371724], [-79.9514347, 40.4369295], [-79.9518347, 40.4360699], [-79.952782, 40.4362153], [-79.9523927, 40.4371724]]]}}, {"type": "Feature", "properties": {"i": 46}, "geometry": {"type": "Polygon", "coordinates": [[[-79.950993, 40.4368295], [-79.9523199, 40.4371553], [-79.9523927, 40.4371724], [-79.9523142, 40.4373652], [-79.9509017, 40.4370135], [-79.950993, 40.4368295]]]}}, {"type": "Feature", "properties": {"i": 47}, "geometry": {"type": "Polygon", "coordinates": [[[-79.9548114, 40.4336735], [-79.9533916, 40.4334883], [-79.9535115, 40.432957], [-79.9549334, 40.4331407], [-79.9548114, 40.4336735]]]}}, {"type": "Feature", "properties": {"i": 48}, "geometry": {"type": "Polygon", "coordinates": [[[-79.9533916, 40.4334883], [-79.9548114, 40.4336735], [-79.9546016, 40.4345772], [-79.9531863, 40.4343817], [-79.9533916, 40.4334883]]]}}, {"type": "Feature", "properties": {"i": 49}, "geometry": {"type": "Polygon", "coordinates": [[[-79.9584522, 40.4526919], [-79.9580863, 40.4533821], [-79.9564472, 40.4528302], [-79.9568433, 40.4521525], [-79.9584522, 40.4526919]]]}}, {"type": "Feature", "properties": {"i": 50}, "geometry": {"type": "Polygon", "coordinates": [[[-79.9505198, 40.4462428], [-79.9489127, 40.4463668], [-79.9488424, 40.4458291], [-79.9504423, 40.4457061], [-79.9505198, 40.4462428]]]}}, {"type": "Feature", "properties": {"i": 51}, "geometry": {"type": "Polygon", "coordinates": [[[-79.9729513, 40.4292374], [-79.9709027, 40.4291106], [-79.9711583, 40.4281947], [-79.9730376, 40.4283576], [-79.9729513, 40.4292374]]]}}, {"type": "Feature", "properties": {"i": 52}, "geometry": {"type": "Polygon", "coordinates": [[[-79.9709027, 40.4291106], [-79.9693982, 40.4287183], [-79.9698059, 40.4278448], [-79.9711583, 40.4281947], [-79.9709027, 40.4291106]]]}}, {"type": "Feature", "properties": {"i": 53}, "geometry": {"type": "Polygon", "coordinates": [[[-79.9635665, 40.4513386], [-79.9637766, 40.4508694], [-79.9638592, 40.4504559], [-79.964427, 40.4504368], [-79.9651885, 40.4505544], [-79.9643641, 40.4519316], [-79.9643311, 40.452104], [-79.9643605, 40.452278], [-79.9628865, 40.4532717], [-79.9622062, 40.4531506], [-79.9632335, 40.4525995], [-79.9635665, 40.4513386]]]}}, {"type": "Feature", "properties": {"i": 54}, "geometry": {"type": "Polygon", "coordinates": [[[-79.9600324, 40.4452218], [-79.9605147, 40.445093], [-79.9607599, 40.4450945], [-79.9609642, 40.4451531], [-79.9611767, 40.4453121], [-79.9613029, 40.4455155], [-79.9608007, 40.4454989], [-79.960524, 40.4455945], [-79.9603666, 40.4457226], [-79.9602475, 40.4459577], [-79.9600075, 40.4470753], [-79.9599273, 40.4472496], [-79.9595658, 40.4475589], [-79.9591622, 40.4477368], [-79.9589501, 40.4481174], [-79.9587207, 40.44837], [-79.958365, 40.4485092], [-79.9587564, 40.4481017], [-79.9588625, 40.4478699], [-79.9590066, 40.4469053], [-79.9592563, 40.4459184], [-79.9595424, 40.445504], [-79.9596991, 40.4453661], [-79.9600324, 40.4452218]]]}}, {"type": "Feature", "properties": {"i": 55}, "geometry": {"type": "Polygon", "coordinates": [[[-79.9581281, 40.4358752], [-79.9579333, 40.4359247], [-79.9561276, 40.4359514], [-79.9564204, 40.4351309], [-79.9581281, 40.4358752]]]}}, {"type": "Feature", "properties": {"i": 56}, "geometry": {"type": "Polygon", "coordinates": [[[-79.957375, 40.4359373], [-79.9579333, 40.4359247], [-79.9581281, 40.4358752], [-79.9585314, 40.4362695], [-79.9595234, 40.4370737], [-79.9586192, 40.4377324], [-79.9568774, 40.4363266], [-79.957375, 40.4359373]]]}}, {"type": "Feature", "properties": {"i": 57}, "geometry": {"type": "Polygon", "coordinates": [[[-79.9377641, 40.4523814], [-79.9367177, 40.4527497], [-79.9357551, 40.451046], [-79.9367851, 40.4506941], [-79.9377641, 40.4523814]]]}}, {"type": "Feature", "properties": {"i": 58}, "geometry": {"type": "Polygon", "coordinates": [[[-79.9367177, 40.4527497], [-79.9359648, 40.4531102], [-79.9354057, 40.4521511], [-79.9362378, 40.4518935], [-79.9367177, 40.4527497]]]}}, {"type": "Feature", "properties": {"i": 59}, "geometry": {"type": "Polygon", "coordinates": [[[-79.9359648, 40.4531102], [-79.9351866, 40.453482], [-79.9345912, 40.4524326], [-79.9354057, 40.4521511], [-79.9359648, 40.4531102]]]}}, {"type": "Feature", "properties": {"i": 60}, "geometry": {"type": "Polygon", "coordinates": [[[-79.9678503, 40.4408584], [-79.966428, 40.4410942], [-79.965657, 40.441673], [-79.9655542, 40.4403374], [-79.9676039, 40.4400194], [-79.9678503, 40.4408584]]]}}, {"type": "Feature", "properties": {"i": 61}, "geometry": {"type": "Polygon", "coordinates": [[[-79.965657, 40.441673], [-79.966428, 40.4410942], [-79.9678503, 40.4408584], [-79.9679689, 40.441133], [-79.9657479, 40.4428403], [-79.965657, 40.441673]]]}}, {"type": "Feature", "properties": {"i": 62}, "geometry": {"type": "Polygon", "coordinates": [[[-79.9698059, 40.4278448], [-79.9693982, 40.4287183], [-79.9679763, 40.4283363], [-79.9683857, 40.4274582], [-79.9698059, 40.4278448]]]}}, {"type": "Feature", "properties": {"i": 63}, "geometry": {"type": "Polygon", "coordinates": [[[-79.9497719, 40.450094], [-79.950856, 40.452237], [-79.9496945, 40.452587], [-79.9487445, 40.4503998], [-79.9497719, 40.450094]]]}}, {"type": "Feature", "properties": {"i": 64}, "geometry": {"type": "Polygon", "coordinates": [[[-79.950856, 40.452237], [-79.9497719, 40.450094], [-79.9507475, 40.4498042], [-79.9520154, 40.4518907], [-79.950856, 40.452237]]]}}, {"type": "Feature", "properties": {"i": 65}, "geometry": {"type": "Polygon", "coordinates": [[[-79.9672075, 40.4518866], [-79.9677189, 40.4527257], [-79.9665486, 40.453221], [-79.9660236, 40.4529983], [-79.9649243, 40.4528795], [-79.9672075, 40.4518866]]]}}, {"type": "Feature", "properties": {"i": 66}, "geometry": {"type": "Polygon", "coordinates": [[[-79.9677189, 40.4527257], [-79.9672075, 40.4518866], [-79.9689286, 40.4511585], [-79.969461, 40.4519911], [-79.9677189, 40.4527257]]]}}, {"type": "Feature", "properties": {"i": 67}, "geometry": {"type": "Polygon", "coordinates": [[[-79.9663704, 40.4503629], [-79.967298, 40.4518505], [-79.9649243, 40.4528795], [-79.9643605, 40.452278], [-79.9643311, 40.452104], [-79.9643641, 40.4519316], [-79.9649392, 40.4509677], [-79.9663704, 40.4503629]]]}}, {"type": "Feature", "properties": {"i": 68}, "geometry": {"type": "Polygon", "coordinates": [[[-79.967298, 40.4518505], [-79.9663704, 40.4503629], [-79.967388, 40.4499304], [-79.9683598, 40.4513986], [-79.967298, 40.4518505]]]}}, {"type": "Feature", "properties": {"i": 69}, "geometry": {"type": "Polygon", "coordinates": [[[-79.9725076, 40.4477594], [-79.9733551, 40.4492763], [-79.971135, 40.450222], [-79.9703123, 40.4486875], [-79.9725076, 40.4477594]]]}}, {"type": "Feature", "properties": {"i": 70}, "geometry": {"type": "Polygon", "coordinates": [[[-79.952493, 40.4369517], [-79.9539378, 40.4381113], [-79.9534537, 40.4385901], [-79.9521285, 40.4378085], [-79.952493, 40.4369517]]]}}, {"type": "Feature", "properties": {"i": 71}, "geometry": {"type": "Polygon", "coordinates": [[[-79.9539378, 40.4381113], [-79.9559048, 40.4397044], [-79.9568596, 40.4404883], [-79.9562105, 40.4409578], [-79.9533781, 40.4386633], [-79.9539378, 40.4381113]]]}}, {"type": "Feature", "properties": {"i": 72}, "geometry": {"type": "Polygon", "coordinates": [[[-79.9559048, 40.4397044], [-79.9539378, 40.4381113], [-79.9545416, 40.4375344], [-79.9566021, 40.4391818], [-79.9559048, 40.4397044]]]}}, {"type": "Feature", "properties": {"i": 73}, "geometry": {"type": "Polygon", "coordinates": [[[-79.9568596, 40.4404883], [-79.9559048, 40.4397044], [-79.9566021, 40.4391818], [-79.9575785, 40.4399698], [-79.9568596, 40.4404883]]]}}, {"type": "Feature", "properties": {"i": 74}, "geometry": {"type": "Polygon", "coordinates": [[[-79.9563859, 40.4457173], [-79.958101, 40.4471133], [-79.9581659, 40.4472185], [-79.9580922, 40.4474211], [-79.9574383, 40.4478857], [-79.9555355, 40.4463281], [-79.9563859, 40.4457173]]]}}, {"type": "Feature", "properties": {"i": 75}, "geometry": {"type": "Polygon", "coordinates": [[[-79.9657645, 40.4357154], [-79.9653377, 40.4356084], [-79.9647612, 40.4357086], [-79.9632478, 40.4351135], [-79.9637007, 40.4344464], [-79.9653147, 40.4350954], [-79.9657645, 40.4357154]]]}}, {"type": "Feature", "properties": {"i": 76}, "geometry": {"type": "Polygon", "coordinates": [[[-79.9527322, 40.4483658], [-79.9537478, 40.4476266], [-79.9554605, 40.449004], [-79.9555641, 40.4491743], [-79.9555695, 40.4493546], [-79.9549411, 40.4509149], [-79.9546962, 40.4510899], [-79.9540443, 40.4512886], [-79.9527322, 40.4483658]]]}}, {"type": "Feature", "properties": {"i": 77}, "geometry": {"type": "Polygon", "coordinates": [[[-79.9727359, 40.4375893], [-79.97279397249828, 40.43713911325585], [-79.9744997, 40.4372093], [-79.9744369, 40.4380262], [-79.9733893, 40.4379327], [-79.9727719, 40.4377505], [-79.9727359, 40.4375893]]]}}, {"type": "Feature", "properties": {"i": 78}, "geometry": {"type": "Polygon", "coordinates": [[[-79.9746816, 40.4279476], [-79.973083, 40.427853], [-79.9731256, 40.4274129], [-79.9747154, 40.4275046], [-79.9746816, 40.4279476]]]}}, {"type": "Feature", "properties": {"i": 79}, "geometry": {"type": "Polygon", "coordinates": [[[-79.973083, 40.427853], [-79.9746816, 40.4279476], [-79.9746323, 40.4283884], [-79.9743195, 40.4284131], [-79.9730433, 40.4282829], [-79.973083, 40.427853]]]}}, {"type": "Feature", "properties": {"i": 80}, "geometry": {"type": "Polygon", "coordinates": [[[-79.9358151, 40.425839], [-79.9360039, 40.4264989], [-79.9354822, 40.426771], [-79.9339693, 40.4274076], [-79.9324507, 40.4274343], [-79.9358151, 40.425839]]]}}, {"type": "Feature", "properties": {"i": 81}, "geometry": {"type": "Polygon", "coordinates": [[[-79.9567325, 40.4496346], [-79.9568191, 40.4497217], [-79.95656, 40.4499703], [-79.9551001, 40.4509989], [-79.9545666, 40.4522005], [-79.9544017, 40.4521889], [-79.9549411, 40.4509149], [-79.9567325, 40.4496346]]]}}, {"type": "Feature", "properties": {"i": 82}, "geometry": {"type": "Polygon", "coordinates": [[[-79.9578873, 40.4537543], [-79.9570084, 40.4534791], [-79.9562449, 40.4531496], [-79.9564472, 40.4528302], [-79.9580863, 40.4533821], [-79.9578873, 40.4537543]]]}}, {"type": "Feature", "properties": {"i": 83}, "geometry": {"type": "Polygon", "coordinates": [[[-79.9700336, 40.4411526], [-79.9700403, 40.4407334], [-79.9697467, 40.4401397], [-79.970489, 40.4397241], [-79.9710865, 40.4408478], [-79.971194, 40.4414106], [-79.9701933, 40.441154], [-79.9700336, 40.4411526]]]}}, {"type": "Feature", "properties": {"i": 84}, "geometry": {"type": "Polygon", "coordinates": [[[-79.946557, 40.4448377], [-79.9467698430938, 40.44452489652415], [-79.9486742, 40.4444446], [-79.9487756, 40.4452819], [-79.9465624, 40.4454378], [-79.9465034, 40.4450949], [-79.946557, 40.4448377]]]}}, {"type": "Feature", "properties": {"i": 85}, "geometry": {"type": "Polygon", "coordinates": [[[-79.9563724, 40.4332181], [-79.9549565, 40.4330404], [-79.9555048, 40.4307147], [-79.9567361, 40.4316266], [-79.9563724, 40.4332181]]]}}, {"type": "Feature", "properties": {"i": 86}, "geometry": {"type": "Polygon", "coordinates": [[[-79.9549565, 40.4330404], [-79.9563724, 40.4332181], [-79.9559613, 40.4349878], [-79.9546016, 40.4345772], [-79.9549565, 40.4330404]]]}}, {"type": "Feature", "properties": {"i": 87}, "geometry": {"type": "Polygon", "coordinates": [[[-79.9487445, 40.4503998], [-79.9470412, 40.4465191], [-79.9489127, 40.4463668], [-79.9489816, 40.4469408], [-79.9507475, 40.4498042], [-79.9487445, 40.4503998]]]}}, {"type": "Feature", "properties": {"i": 88}, "geometry": {"type": "Polygon", "coordinates": [[[-79.9683857, 40.4274582], [-79.9687871, 40.4265894], [-79.9702086, 40.4269821], [-79.9698059, 40.4278448], [-79.9683857, 40.4274582]]]}}, {"type": "Feature", "properties": {"i": 89}, "geometry": {"type": "Polygon", "coordinates": [[[-79.9687871, 40.4265894], [-79.968984, 40.4261678], [-79.9704103, 40.426563], [-79.9702086, 40.4269821], [-79.9687871, 40.4265894]]]}}, {"type": "Feature", "properties": {"i": 90}, "geometry": {"type": "Polygon", "coordinates": [[[-79.968984, 40.4261678], [-79.9687871, 40.4265894], [-79.9674823, 40.4262289], [-79.9676777, 40.4258099], [-79.968984, 40.4261678]]]}}, {"type": "Feature", "properties": {"i": 91}, "geometry": {"type": "Polygon", "coordinates": [[[-79.9490784, 40.4527686], [-79.9493274, 40.4532702], [-79.9494443, 40.4540724], [-79.9476706, 40.4543727], [-79.9473554, 40.4532872], [-79.9490784, 40.4527686]]]}}, {"type": "Feature", "properties": {"i": 92}, "geometry": {"type": "Polygon", "coordinates": [[[-79.9494443, 40.4540724], [-79.9493274, 40.4532702], [-79.9490784, 40.4527686], [-79.950856, 40.452237], [-79.9511364, 40.4527696], [-79.9519274, 40.4540213], [-79.9494443, 40.4540724]]]}}, {"type": "Feature", "properties": {"i": 93}, "geometry": {"type": "Polygon", "coordinates": [[[-79.9613251, 40.4356802], [-79.9620724, 40.4346505], [-79.9628241, 40.4349472], [-79.9622318, 40.4357784], [-79.9614938, 40.4358252], [-79.9613251, 40.4356802]]]}}, {"type": "Feature", "properties": {"i": 94}, "geometry": {"type": "Polygon", "coordinates": [[[-79.9598798, 40.4431747], [-79.9593487, 40.4435666], [-79.9555522, 40.4414608], [-79.9562105, 40.4409578], [-79.9577491, 40.4421734], [-79.9588445, 40.4425868], [-79.9598798, 40.4431747]]]}}, {"type": "Feature", "properties": {"i": 95}, "geometry": {"type": "Polygon", "coordinates": [[[-79.9405912, 40.427806], [-79.9397706, 40.4279887], [-79.9397741, 40.4270133], [-79.9404024, 40.4268597], [-79.9407316, 40.4276671], [-79.9405912, 40.427806]]]}}, {"type": "Feature", "properties": {"i": 96}, "geometry": {"type": "Polygon", "coordinates": [[[-79.9415599, 40.427573], [-79.9405912, 40.427806], [-79.9407316, 40.4276671], [-79.9404024, 40.4268597], [-79.9411873, 40.4266647], [-79.9415599, 40.427573]]]}}, {"type": "Feature", "properties": {"i": 97}, "geometry": {"type": "Polygon", "coordinates": [[[-79.9745975, 40.4498197], [-79.9750543, 40.4504794], [-79.9728095, 40.4514346], [-79.9726131, 40.4514034], [-79.9721949, 40.4508382], [-79.9745975, 40.4498197]]]}}, {"type": "Feature", "properties": {"i": 98}, "geometry": {"type": "Polygon", "coordinates": [[[-79.9690801, 40.4487719], [-79.9685472, 40.4479058], [-79.9684452, 40.4478772], [-79.968059, 40.4480231], [-79.9677689, 40.4475556], [-79.9688433, 40.4469938], [-79.9698913, 40.448149], [-79.9703123, 40.4486875], [-79.9688401, 40.449312], [-79.9686022, 40.4489426], [-79.9690801, 40.4487719]]]}}, {"type": "Feature", "properties": {"i": 99}, "geometry": {"type": "Polygon", "coordinates": [[[-79.9685074, 40.4478739], [-79.9690801, 40.4487719], [-79.9686022, 40.4489426], [-79.968059, 40.4480231], [-79.9685074, 40.4478739]]]}}, {"type": "Feature", "properties": {"i": 100}, "geometry": {"type": "Polygon", "coordinates": [[[-79.9718412, 40.4450262], [-79.9733904, 40.4443624], [-79.973969, 40.4451794], [-79.9726372, 40.4457535], [-79.9724491, 40.4457905], [-79.9707806, 40.4454202], [-79.9718412, 40.4450262]]]}}, {"type": "Feature", "properties": {"i": 101}, "geometry": {"type": "Polygon", "coordinates": [[[-79.9388572, 40.4261943], [-79.93926, 40.4262567], [-79.9397905, 40.426178], [-79.9397741, 40.4270133], [-79.939069, 40.4271713], [-79.9385684, 40.4270502], [-79.9386196, 40.4265832], [-79.9385533, 40.4262887], [-79.9388572, 40.4261943]]]}}, {"type": "Feature", "properties": {"i": 102}, "geometry": {"type": "Polygon", "coordinates": [[[-79.9458873, 40.4524882], [-79.9438958, 40.4530873], [-79.9436569, 40.4526302], [-79.943347, 40.4518092], [-79.9454092, 40.4513886], [-79.9458873, 40.4524882]]]}}, {"type": "Feature", "properties": {"i": 103}, "geometry": {"type": "Polygon", "coordinates": [[[-79.9438958, 40.4530873], [-79.9458873, 40.4524882], [-79.9463807, 40.4535908], [-79.9444362, 40.4541589], [-79.9438958, 40.4530873]]]}}, {"type": "Feature", "properties": {"i": 104}, "geometry": {"type": "Polygon", "coordinates": [[[-79.9711583, 40.4281947], [-79.9714095, 40.4273122], [-79.9731256, 40.4274129], [-79.9730433, 40.4282829], [-79.9726537, 40.4282592], [-79.9725502, 40.4282912], [-79.9711583, 40.4281947]]]}}, {"type": "Feature", "properties": {"i": 105}, "geometry": {"type": "Polygon", "coordinates": [[[-79.9714095, 40.4273122], [-79.9711583, 40.4281947], [-79.9698059, 40.4278448], [-79.9702086, 40.4269821], [-79.9714095, 40.4273122]]]}}, {"type": "Feature", "properties": {"i": 106}, "geometry": {"type": "Polygon", "coordinates": [[[-79.9714095, 40.4273122], [-79.971537, 40.4268629], [-79.9731738, 40.4269651], [-79.9731256, 40.4274129], [-79.9714095, 40.4273122]]]}}, {"type": "Feature", "properties": {"i": 107}, "geometry": {"type": "Polygon", "coordinates": [[[-79.971537, 40.4268629], [-79.9714095, 40.4273122], [-79.9702086, 40.4269821], [-79.9704103, 40.426563], [-79.971537, 40.4268629]]]}}, {"type": "Feature", "properties": {"i": 108}, "geometry": {"type": "Polygon", "coordinates": [[[-79.971537, 40.4268629], [-79.9716657, 40.426426], [-79.9732107, 40.4265219], [-79.9731738, 40.4269651], [-79.971537, 40.4268629]]]}}, {"type": "Feature", "properties": {"i": 109}, "geometry": {"type": "Polygon", "coordinates": [[[-79.9716657, 40.426426], [-79.971537, 40.4268629], [-79.9704103, 40.426563], [-79.9706035, 40.426136], [-79.9716657, 40.426426]]]}}, {"type": "Feature", "properties": {"i": 110}, "geometry": {"type": "Polygon", "coordinates": [[[-79.9717882, 40.4259915], [-79.9716657, 40.426426], [-79.9706035, 40.426136], [-79.9707999, 40.4257188], [-79.9717882, 40.4259915]]]}}, {"type": "Feature", "properties": {"i": 111}, "geometry": {"type": "Polygon", "coordinates": [[[-79.957526, 40.4509663], [-79.9578145, 40.4504704], [-79.9593964, 40.450999], [-79.9591028, 40.4515046], [-79.957526, 40.4509663]]]}}, {"type": "Feature", "properties": {"i": 112}, "geometry": {"type": "Polygon", "coordinates": [[[-79.9572326, 40.4514708], [-79.957526, 40.4509663], [-79.9591028, 40.4515046], [-79.9588141, 40.4520033], [-79.9572326, 40.4514708]]]}}, {"type": "Feature", "properties": {"i": 113}, "geometry": {"type": "Polygon", "coordinates": [[[-79.9549334, 40.4331407], [-79.9535115, 40.432957], [-79.954237, 40.4297822], [-79.9555048, 40.4307147], [-79.9549334, 40.4331407]]]}}, {"type": "Feature", "properties": {"i": 114}, "geometry": {"type": "Polygon", "coordinates": [[[-79.9488424, 40.4458291], [-79.9489127, 40.4463668], [-79.9470412, 40.4465191], [-79.9468206, 40.4460133], [-79.9468839, 40.4459685], [-79.9488424, 40.4458291]]]}}, {"type": "Feature", "properties": {"i": 115}, "geometry": {"type": "Polygon", "coordinates": [[[-79.9488424, 40.4458291], [-79.9487756, 40.4452819], [-79.9503697, 40.4451605], [-79.9504423, 40.4457061], [-79.9488424, 40.4458291]]]}}, {"type": "Feature", "properties": {"i": 116}, "geometry": {"type": "Polygon", "coordinates": [[[-79.9487756, 40.4452819], [-79.9488424, 40.4458291], [-79.9468839, 40.4459685], [-79.9468206, 40.4460133], [-79.9465624, 40.4454378], [-79.9487756, 40.4452819]]]}}, {"type": "Feature", "properties": {"i": 117}, "geometry": {"type": "Polygon", "coordinates": [[[-79.9354057, 40.4521511], [-79.9347137, 40.4509566], [-79.9347161, 40.4508944], [-79.9355158, 40.4506429], [-79.9362378, 40.4518935], [-79.9354057, 40.4521511]]]}}, {"type": "Feature", "properties": {"i": 118}, "geometry": {"type": "Polygon", "coordinates": [[[-79.9683598, 40.4513986], [-79.967388, 40.4499304], [-79.9679923, 40.4496742], [-79.9689286, 40.4511585], [-79.9683598, 40.4513986]]]}}, {"type": "Feature", "properties": {"i": 119}, "geometry": {"type": "Polygon", "coordinates": [[[-79.9549714, 40.4371036], [-79.9570462, 40.438791], [-79.9571031, 40.4388365], [-79.9566021, 40.4391818], [-79.9545416, 40.4375344], [-79.9549714, 40.4371036]]]}}, {"type": "Feature", "properties": {"i": 120}, "geometry": {"type": "Polygon", "coordinates": [[[-79.9571031, 40.4388365], [-79.9549714, 40.4371036], [-79.9555083, 40.4365804], [-79.9577099, 40.4383837], [-79.9571031, 40.4388365]]]}}, {"type": "Feature", "properties": {"i": 121}, "geometry": {"type": "Polygon", "coordinates": [[[-79.9632478, 40.4351135], [-79.9628612, 40.4356957], [-79.9622318, 40.4357784], [-79.9628241, 40.4349472], [-79.9632478, 40.4351135]]]}}, {"type": "Feature", "properties": {"i": 122}, "geometry": {"type": "Polygon", "coordinates": [[[-79.9533431, 40.4539971], [-79.9519274, 40.4540213], [-79.9511364, 40.4527696], [-79.950856, 40.452237], [-79.9520154, 40.4518907], [-79.9533431, 40.4539971]]]}}, {"type": "Feature", "properties": {"i": 123}, "geometry": {"type": "Polygon", "coordinates": [[[-79.963774, 40.454569], [-79.96318, 40.4540699], [-79.9637636, 40.4536716], [-79.9638571, 40.4537162], [-79.964324, 40.4535211], [-79.9647159, 40.4539347], [-79.963774, 40.454569]]]}}, {"type": "Feature", "properties": {"i": 124}, "geometry": {"type": "Polygon", "coordinates": [[[-79.9361793, 40.4496419], [-79.9367851, 40.4506941], [-79.9357551, 40.451046], [-79.9351344, 40.4499987], [-79.9361793, 40.4496419]]]}}, {"type": "Feature", "properties": {"i": 125}, "geometry": {"type": "Polygon", "coordinates": [[[-79.9541864, 40.4364616], [-79.9543299, 40.4358219], [-79.9546307, 40.43584], [-79.9555083, 40.4365804], [-79.9549714, 40.4371036], [-79.9541864, 40.4364616]]]}}, {"type": "Feature", "properties": {"i": 126}, "geometry": {"type": "Polygon", "coordinates": [[[-79.9546016, 40.4345772], [-79.9541864, 40.4364616], [-79.9540975, 40.4364093], [-79.952782, 40.4362153], [-79.9531863, 40.4343817], [-79.9546016, 40.4345772]]]}}, {"type": "Feature", "properties": {"i": 127}, "geometry": {"type": "Polygon", "coordinates": [[[-79.9657376, 40.4461544], [-79.9651958, 40.4452889], [-79.9651472, 40.4450526], [-79.9652853, 40.4448533], [-79.9664333, 40.4441302], [-79.9664498, 40.4440156], [-79.9660599, 40.4433626], [-79.9681479, 40.442854], [-79.9683399, 40.4430021], [-79.9685375, 40.4430782], [-79.9699219, 40.4431111], [-79.9698617, 40.4446462], [-79.9662319, 40.4468922], [-79.9667155, 40.4476464], [-79.9651138, 40.4487602], [-79.9648788, 40.4488506], [-79.9647903, 40.4486145], [-79.9648262, 40.4485181], [-79.9655316, 40.4480232], [-79.9657122, 40.4477663], [-79.9659235, 40.446947], [-79.9658992, 40.4466235], [-79.9657376, 40.4461544]], [[-79.9664135, 40.4459339], [-79.966569, 40.446036], [-79.9668104, 40.4458727], [-79.9668127, 40.4458228], [-79.9667052, 40.4457565], [-79.9664135, 40.4459339]]]}}, {"type": "Feature", "properties": {"i": 128}, "geometry": {"type": "Polygon", "coordinates": [[[-79.9593964, 40.450999], [-79.9594419, 40.4510146], [-79.9609072, 40.4515164], [-79.9606144, 40.4520151], [-79.9591028, 40.4515046], [-79.9593964, 40.450999]]]}}, {"type": "Feature", "properties": {"i": 129}, "geometry": {"type": "Polygon", "coordinates": [[[-79.9609072, 40.4515164], [-79.9594419, 40.4510146], [-79.9593964, 40.450999], [-79.9596812, 40.4505017], [-79.9611844, 40.4510163], [-79.9609072, 40.4515164]]]}}, {"type": "Feature", "properties": {"i": 130}, "geometry": {"type": "Polygon", "coordinates": [[[-79.9609072, 40.4515164], [-79.9623423, 40.4519968], [-79.9633774, 40.4521033], [-79.9632622, 40.4525358], [-79.9631992, 40.4526364], [-79.9621815, 40.4525387], [-79.9606144, 40.4520151], [-79.9609072, 40.4515164]]]}}, {"type": "Feature", "properties": {"i": 131}, "geometry": {"type": "Polygon", "coordinates": [[[-79.9623423, 40.4519968], [-79.9609072, 40.4515164], [-79.9611307, 40.4511072], [-79.9635665, 40.4513386], [-79.9633774, 40.4521033], [-79.9623423, 40.4519968]]]}}, {"type": "Feature", "properties": {"i": 132}, "geometry": {"type": "Polygon", "coordinates": [[[-79.9415599, 40.427573], [-79.9411873, 40.4266647], [-79.9419735, 40.4264769], [-79.9423473, 40.4273884], [-79.9415599, 40.427573]]]}}, {"type": "Feature", "properties": {"i": 133}, "geometry": {"type": "Polygon", "coordinates": [[[-79.9411873, 40.4266647], [-79.9408721, 40.4259182], [-79.9416626, 40.4257271], [-79.9419735, 40.4264769], [-79.9411873, 40.4266647]]]}}, {"type": "Feature", "properties": {"i": 134}, "geometry": {"type": "Polygon", "coordinates": [[[-79.9408721, 40.4259182], [-79.9411873, 40.4266647], [-79.9404024, 40.4268597], [-79.9400819, 40.4261094], [-79.9408721, 40.4259182]]]}}, {"type": "Feature", "properties": {"i": 135}, "geometry": {"type": "Polygon", "coordinates": [[[-79.9406129, 40.4252745], [-79.9408721, 40.4259182], [-79.9397905, 40.426178], [-79.9397984, 40.425465], [-79.9406129, 40.4252745]]]}}, {"type": "Feature", "properties": {"i": 136}, "geometry": {"type": "Polygon", "coordinates": [[[-79.9670192, 40.4480863], [-79.9679923, 40.4496742], [-79.9663704, 40.4503629], [-79.9652905, 40.4486321], [-79.9674911, 40.4471148], [-79.9677689, 40.4475556], [-79.9670364, 40.4480237], [-79.9670192, 40.4480863]]]}}, {"type": "Feature", "properties": {"i": 137}, "geometry": {"type": "Polygon", "coordinates": [[[-79.9679923, 40.4496742], [-79.9670192, 40.4480863], [-79.9670364, 40.4480237], [-79.9677689, 40.4475556], [-79.9688401, 40.449312], [-79.9679923, 40.4496742]]]}}, {"type": "Feature", "properties": {"i": 138}, "geometry": {"type": "Polygon", "coordinates": [[[-79.9689286, 40.4511585], [-79.9679923, 40.4496742], [-79.9703123, 40.4486875], [-79.971135, 40.450222], [-79.9689286, 40.4511585]]]}}, {"type": "Feature", "properties": {"i": 139}, "geometry": {"type": "Polygon", "coordinates": [[[-79.9667155, 40.4476464], [-79.9662319, 40.4468922], [-79.9698617, 40.4446462], [-79.9710951, 40.4446375], [-79.9718136, 40.4449747], [-79.9718412, 40.4450262], [-79.9689605, 40.4460907], [-79.9667155, 40.4476464]]]}}, {"type": "Feature", "properties": {"i": 140}, "geometry": {"type": "Polygon", "coordinates": [[[-79.9632732, 40.4446918], [-79.9633957, 40.4440963], [-79.9633361, 40.4437579], [-79.963251, 40.4436032], [-79.9629973, 40.4433728], [-79.9620152, 40.4427689], [-79.9628195, 40.4419581], [-79.9651757, 40.4432536], [-79.9632732, 40.4446918]]]}}, {"type": "Feature", "properties": {"i": 141}, "geometry": {"type": "Polygon", "coordinates": [[[-79.961917, 40.4549318], [-79.9613958, 40.4542981], [-79.9628865, 40.4532717], [-79.9643605, 40.452278], [-79.9649243, 40.4528795], [-79.961917, 40.4549318]]]}}, {"type": "Feature", "properties": {"i": 142}, "geometry": {"type": "Polygon", "coordinates": [[[-79.9593205, 40.4358881], [-79.9593358, 40.4358006], [-79.9599856, 40.4348909], [-79.960766, 40.4352155], [-79.9614938, 40.4358252], [-79.9593205, 40.4358881]]]}}, {"type": "Feature", "properties": {"i": 143}, "geometry": {"type": "Polygon", "coordinates": [[[-79.9540733, 40.4392274], [-79.9529922, 40.4400245], [-79.9523601, 40.4396823], [-79.9533781, 40.4386633], [-79.9540733, 40.4392274]]]}}, {"type": "Feature", "properties": {"i": 144}, "geometry": {"type": "Polygon", "coordinates": [[[-79.9529922, 40.4400245], [-79.9540733, 40.4392274], [-79.9562105, 40.4409578], [-79.9555522, 40.4414608], [-79.9529922, 40.4400245]]]}}, {"type": "Feature", "properties": {"i": 145}, "geometry": {"type": "Polygon", "coordinates": [[[-79.9555641, 40.4491743], [-79.9553866, 40.4489326], [-79.9537478, 40.4476266], [-79.9547902, 40.4468683], [-79.9567009, 40.4484374], [-79.9557746, 40.4490909], [-79.9555641, 40.4491743]]]}}, {"type": "Feature", "properties": {"i": 146}, "geometry": {"type": "Polygon", "coordinates": [[[-79.9649392, 40.4509677], [-79.9652825, 40.4503989], [-79.9653627, 40.4501071], [-79.9653093, 40.4498558], [-79.9648788, 40.4488506], [-79.9651138, 40.4487602], [-79.9652905, 40.4486321], [-79.9663704, 40.4503629], [-79.9649392, 40.4509677]]]}}, {"type": "Feature", "properties": {"i": 147}, "geometry": {"type": "Polygon", "coordinates": [[[-79.9606144, 40.4520151], [-79.9621815, 40.4525387], [-79.9631992, 40.4526364], [-79.9622062, 40.4531506], [-79.960324, 40.4525111], [-79.9606144, 40.4520151]]]}}, {"type": "Feature", "properties": {"i": 148}, "geometry": {"type": "Polygon", "coordinates": [[[-79.9591028, 40.4515046], [-79.9591569, 40.4515228], [-79.9606144, 40.4520151], [-79.960324, 40.4525111], [-79.9588141, 40.4520033], [-79.9591028, 40.4515046]]]}}, {"type": "Feature", "properties": {"i": 149}, "geometry": {"type": "Polygon", "coordinates": [[[-79.9550836, 40.4568359], [-79.9533431, 40.4539971], [-79.9520154, 40.4518907], [-79.9533454, 40.4514934], [-79.9541442, 40.4528064], [-79.9540582, 40.4530494], [-79.9540577, 40.4532446], [-79.9543207, 40.4538603], [-79.9550604, 40.4565179], [-79.9550836, 40.4568359]]]}}, {"type": "Feature", "properties": {"i": 150}, "geometry": {"type": "Polygon", "coordinates": [[[-79.9476706, 40.4543727], [-79.946603, 40.4545676], [-79.9452126, 40.454979], [-79.9444362, 40.4541589], [-79.9473554, 40.4532872], [-79.9476706, 40.4543727]]]}}, {"type": "Feature", "properties": {"i": 151}, "geometry": {"type": "Polygon", "coordinates": [[[-79.97279397249828, 40.43713911325585], [-79.97291848418051, 40.43652035917732], [-79.9733093, 40.4365709], [-79.9734816, 40.4366623], [-79.973522, 40.4367896], [-79.9735014, 40.437168], [-79.97279397249828, 40.43713911325585]]]}}, {"type": "Feature", "properties": {"i": 152}, "geometry": {"type": "Polygon", "coordinates": [[[-79.9738756, 40.431852], [-79.97305606841165, 40.43583664177326], [-79.97294023975516, 40.43583351625864], [-79.9737250447212, 40.43178452105317], [-79.9738756, 40.431852]]]}}, {"type": "Feature", "properties": {"i": 153}, "geometry": {"type": "Polygon", "coordinates": [[[-79.9736067, 40.428441], [-79.9735349, 40.4298329], [-79.9738693, 40.4312119], [-79.97387869903227, 40.431827106466294], [-79.9737250447212, 40.43178452105317], [-79.9737123, 40.4312278], [-79.9733975, 40.4297816], [-79.97347, 40.4287158], [-79.9735107, 40.4284363], [-79.973567, 40.4283545], [-79.9736067, 40.428441]]]}}, {"type": "Feature", "properties": {"i": 154}, "geometry": {"type": "Polygon", "coordinates": [[[-79.9481911, 40.4407889], [-79.9478678, 40.440679], [-79.9469651, 40.4401904], [-79.9467706, 40.4398231], [-79.9467405, 40.4397164], [-79.9467751, 40.4396134], [-79.947323, 40.4401514], [-79.9480909, 40.4406725], [-79.9481911, 40.4407889]]]}}, {"type": "Feature", "properties": {"i": 155}, "geometry": {"type": "Polygon", "coordinates": [[[-79.9521285, 40.4378085], [-79.9534537, 40.4385901], [-79.9523601, 40.4396823], [-79.9515696, 40.4392613], [-79.9515368, 40.439204], [-79.9521285, 40.4378085]]]}}, {"type": "Feature", "properties": {"i": 156}, "geometry": {"type": "Polygon", "coordinates": [[[-79.9369424, 40.4412218], [-79.9375996, 40.4407006], [-79.9381869, 40.4411565], [-79.9381869, 40.4412153], [-79.9378522, 40.4414766], [-79.9375861, 40.4415877], [-79.9369424, 40.4412218]]]}}, {"type": "Feature", "properties": {"i": 157}, "geometry": {"type": "Polygon", "coordinates": [[[-79.9546307, 40.43584], [-79.956044, 40.4359464], [-79.9561276, 40.4359514], [-79.9555083, 40.4365804], [-79.9546307, 40.43584]]]}}, {"type": "Feature", "properties": {"i": 158}, "geometry": {"type": "Polygon", "coordinates": [[[-79.9486742, 40.4444446], [-79.950213, 40.4440583], [-79.9503697, 40.4451605], [-79.9487756, 40.4452819], [-79.9486742, 40.4444446]]]}}, {"type": "Feature", "properties": {"i": 159}, "geometry": {"type": "Polygon", "coordinates": [[[-79.9670505, 40.4271002], [-79.9662232, 40.427841], [-79.9656683, 40.4276673], [-79.9648046, 40.4270927], [-79.9657441, 40.4262659], [-79.9669609, 40.4270814], [-79.9670505, 40.4271002]]]}}, {"type": "Feature", "properties": {"i": 160}, "geometry": {"type": "Polygon", "coordinates": [[[-79.9662232, 40.427841], [-79.9670505, 40.4271002], [-79.9683857, 40.4274582], [-79.9679763, 40.4283363], [-79.9662232, 40.427841]]]}}, {"type": "Feature", "properties": {"i": 161}, "geometry": {"type": "Polygon", "coordinates": [[[-79.9657441, 40.4262659], [-79.9648046, 40.4270927], [-79.9635641, 40.4262759], [-79.9645205, 40.4254365], [-79.9657441, 40.4262659]]]}}, {"type": "Feature", "properties": {"i": 162}, "geometry": {"type": "Polygon", "coordinates": [[[-79.9648046, 40.4270927], [-79.9640932, 40.427718], [-79.9628603, 40.4268921], [-79.9635641, 40.4262759], [-79.9648046, 40.4270927]]]}}, {"type": "Feature", "properties": {"i": 163}, "geometry": {"type": "Polygon", "coordinates": [[[-79.9640932, 40.427718], [-79.9648046, 40.4270927], [-79.9656683, 40.4276673], [-79.9662232, 40.427841], [-79.9653863, 40.4285766], [-79.9640932, 40.427718]]]}}, {"type": "Feature", "properties": {"i": 164}, "geometry": {"type": "Polygon", "coordinates": [[[-79.9640932, 40.427718], [-79.9638509, 40.4279309], [-79.9632073, 40.4275032], [-79.9625177, 40.4271887], [-79.9628603, 40.4268921], [-79.9640932, 40.427718]]]}}, {"type": "Feature", "properties": {"i": 165}, "geometry": {"type": "Polygon", "coordinates": [[[-79.9638509, 40.4279309], [-79.9640932, 40.427718], [-79.9653863, 40.4285766], [-79.9651329, 40.4287993], [-79.9638509, 40.4279309]]]}}, {"type": "Feature", "properties": {"i": 166}, "geometry": {"type": "Polygon", "coordinates": [[[-79.9662232, 40.427841], [-79.9679763, 40.4283363], [-79.9674578, 40.429402], [-79.9672787, 40.4294586], [-79.9670701, 40.4293971], [-79.9662747, 40.4290526], [-79.9653863, 40.4285766], [-79.9662232, 40.427841]]]}}, {"type": "Feature", "properties": {"i": 167}, "geometry": {"type": "Polygon", "coordinates": [[[-79.9653863, 40.4285766], [-79.965481, 40.4286326], [-79.9662747, 40.4290526], [-79.966085, 40.4293011], [-79.9651329, 40.4287993], [-79.9653863, 40.4285766]]]}}, {"type": "Feature", "properties": {"i": 168}, "geometry": {"type": "Polygon", "coordinates": [[[-79.951624, 40.4365706], [-79.9515511, 40.436551], [-79.9518282, 40.4358019], [-79.9521445, 40.4343521], [-79.9522231, 40.4342602], [-79.9518347, 40.4360699], [-79.951624, 40.4365706]]]}}, {"type": "Feature", "properties": {"i": 169}, "geometry": {"type": "Polygon", "coordinates": [[[-79.9522231, 40.4342602], [-79.9528226, 40.4316631], [-79.9537772, 40.4317976], [-79.9531863, 40.4343817], [-79.9522231, 40.4342602]]]}}, {"type": "Feature", "properties": {"i": 170}, "geometry": {"type": "Polygon", "coordinates": [[[-79.9465469, 40.4352936], [-79.9472514, 40.4351031], [-79.9471038, 40.4352148], [-79.946712, 40.4353295], [-79.9459494, 40.4353774], [-79.945226, 40.4352138], [-79.9448565, 40.4350273], [-79.9447755, 40.4349373], [-79.9454606, 40.4352178], [-79.9459338, 40.4353074], [-79.9465469, 40.4352936]]]}}, {"type": "Feature", "properties": {"i": 171}, "geometry": {"type": "Polygon", "coordinates": [[[-79.9531863, 40.4343817], [-79.952782, 40.4362153], [-79.9518347, 40.4360699], [-79.9522231, 40.4342602], [-79.9531863, 40.4343817]]]}}, {"type": "Feature", "properties": {"i": 172}, "geometry": {"type": "Polygon", "coordinates": [[[-79.9697515, 40.4508046], [-79.9702798, 40.4516499], [-79.969461, 40.4519911], [-79.9689286, 40.4511585], [-79.9697515, 40.4508046]]]}}, {"type": "Feature", "properties": {"i": 173}, "geometry": {"type": "Polygon", "coordinates": [[[-79.9702798, 40.4516499], [-79.9697515, 40.4508046], [-79.9717655, 40.4499533], [-79.9722787, 40.450803], [-79.9702798, 40.4516499]]]}}, {"type": "Feature", "properties": {"i": 174}, "geometry": {"type": "Polygon", "coordinates": [[[-79.9397741, 40.4270133], [-79.9397905, 40.426178], [-79.9400819, 40.4261094], [-79.9404024, 40.4268597], [-79.9397741, 40.4270133]]]}}, {"type": "Feature", "properties": {"i": 175}, "geometry": {"type": "Polygon", "coordinates": [[[-79.9657479, 40.4428403], [-79.9651757, 40.4432536], [-79.9650676, 40.4431941], [-79.9651003, 40.4431341], [-79.9648998, 40.4404372], [-79.9655542, 40.4403374], [-79.9657479, 40.4428403]]]}}, {"type": "Feature", "properties": {"i": 176}, "geometry": {"type": "Polygon", "coordinates": [[[-79.9722787, 40.450803], [-79.9717655, 40.4499533], [-79.972522, 40.4496329], [-79.9729907, 40.4504968], [-79.9722787, 40.450803]]]}}, {"type": "Feature", "properties": {"i": 177}, "geometry": {"type": "Polygon", "coordinates": [[[-79.9627166, 40.432183], [-79.9626117, 40.4322579], [-79.9623098, 40.4326539], [-79.9622707, 40.4327678], [-79.96039, 40.4318699], [-79.9592354, 40.431174], [-79.9593362, 40.43105], [-79.9593974, 40.4310573], [-79.9596041, 40.4308751], [-79.9597989, 40.4306213], [-79.9603083, 40.4310002], [-79.9611416, 40.4312427], [-79.9627166, 40.432183]]]}}, {"type": "Feature", "properties": {"i": 178}, "geometry": {"type": "Polygon", "coordinates": [[[-79.9656298, 40.4335685], [-79.9654903, 40.4336468], [-79.965291, 40.433923], [-79.9652758, 40.4340529], [-79.9622707, 40.4327678], [-79.9626832, 40.4322895], [-79.9627166, 40.432183], [-79.9650534, 40.4330948], [-79.9652805, 40.4332349], [-79.9656298, 40.4335685]]]}}, {"type": "Feature", "properties": {"i": 179}, "geometry": {"type": "Polygon", "coordinates": [[[-79.9731256, 40.4274129], [-79.9731738, 40.4269651], [-79.9747649, 40.4270589], [-79.9747154, 40.4275046], [-79.9731256, 40.4274129]]]}}, {"type": "Feature", "properties": {"i": 180}, "geometry": {"type": "Polygon", "coordinates": [[[-79.9731738, 40.4269651], [-79.9732107, 40.4265219], [-79.9748096, 40.4266118], [-79.9747649, 40.4270589], [-79.9731738, 40.4269651]]]}}, {"type": "Feature", "properties": {"i": 181}, "geometry": {"type": "Polygon", "coordinates": [[[-79.9666932, 40.4387333], [-79.9680085, 40.4385632], [-79.968309, 40.4386246], [-79.9687146, 40.4387813], [-79.9683318, 40.4393724], [-79.9678467, 40.4393722], [-79.9675808, 40.4394941], [-79.9675084, 40.4396628], [-79.9676039, 40.4400194], [-79.966725, 40.4401635], [-79.9664605, 40.4389518], [-79.9665397, 40.43882], [-79.9666932, 40.4387333]]]}}, {"type": "Feature", "properties": {"i": 182}, "geometry": {"type": "Polygon", "coordinates": [[[-79.9687146, 40.4387813], [-79.9695557, 40.4390951], [-79.9691779, 40.4396674], [-79.9683318, 40.4393724], [-79.9687146, 40.4387813]]]}}, {"type": "Feature", "properties": {"i": 183}, "geometry": {"type": "Polygon", "coordinates": [[[-79.9695557, 40.4390951], [-79.9699158, 40.439243], [-79.9701598, 40.4394076], [-79.9694577, 40.4398447], [-79.9691779, 40.4396674], [-79.9695557, 40.4390951]]]}}, {"type": "Feature", "properties": {"i": 184}, "geometry": {"type": "Polygon", "coordinates": [[[-79.9679689, 40.441133], [-79.9679092, 40.4410658], [-79.9676039, 40.4400194], [-79.9678373, 40.4399877], [-79.968107, 40.4400307], [-79.9683875, 40.440168], [-79.9687269, 40.4404272], [-79.9684952, 40.4407279], [-79.9679689, 40.441133]]]}}, {"type": "Feature", "properties": {"i": 185}, "geometry": {"type": "Polygon", "coordinates": [[[-79.9681479, 40.442854], [-79.9695414, 40.4417316], [-79.9696816, 40.441666], [-79.9699937, 40.4416583], [-79.9699219, 40.4431111], [-79.9685375, 40.4430782], [-79.9683399, 40.4430021], [-79.9681479, 40.442854]]]}}, {"type": "Feature", "properties": {"i": 186}, "geometry": {"type": "Polygon", "coordinates": [[[-79.9704685, 40.4432308], [-79.9699171, 40.4432323], [-79.9699483, 40.4424375], [-79.97048, 40.4424734], [-79.9704685, 40.4432308]]]}}, {"type": "Feature", "properties": {"i": 187}, "geometry": {"type": "Polygon", "coordinates": [[[-79.9694577, 40.4398447], [-79.9701598, 40.4394076], [-79.970489, 40.4397241], [-79.9697467, 40.4401397], [-79.9694577, 40.4398447]]]}}, {"type": "Feature", "properties": {"i": 188}, "geometry": {"type": "Polygon", "coordinates": [[[-79.957375, 40.4359373], [-79.9568774, 40.4363266], [-79.9565311, 40.4360466], [-79.9565179, 40.4359576], [-79.957375, 40.4359373]]]}}, {"type": "Feature", "properties": {"i": 189}, "geometry": {"type": "Polygon", "coordinates": [[[-79.9414573, 40.452193], [-79.9409421, 40.4513161], [-79.9430274, 40.4508857], [-79.943347, 40.4518092], [-79.9414573, 40.452193]]]}}, {"type": "Feature", "properties": {"i": 190}, "geometry": {"type": "Polygon", "coordinates": [[[-79.9424491, 40.4255313], [-79.942763, 40.426282], [-79.9419735, 40.4264769], [-79.9416626, 40.4257271], [-79.9424491, 40.4255313]]]}}, {"type": "Feature", "properties": {"i": 191}, "geometry": {"type": "Polygon", "coordinates": [[[-79.9648998, 40.4404372], [-79.9651003, 40.4431341], [-79.9650676, 40.4431941], [-79.9628195, 40.4419581], [-79.9643248, 40.4405235], [-79.9648998, 40.4404372]]]}}, {"type": "Feature", "properties": {"i": 192}, "geometry": {"type": "Polygon", "coordinates": [[[-79.9622318, 40.4357784], [-79.9628612, 40.4356957], [-79.9623132, 40.4364767], [-79.9619532, 40.4361827], [-79.9622318, 40.4357784]]]}}, {"type": "Feature", "properties": {"i": 193}, "geometry": {"type": "Polygon", "coordinates": [[[-79.9496945, 40.452587], [-79.9463807, 40.4535908], [-79.9458873, 40.4524882], [-79.949232, 40.4514944], [-79.9496945, 40.452587]]]}}, {"type": "Feature", "properties": {"i": 194}, "geometry": {"type": "Polygon", "coordinates": [[[-79.9555355, 40.4463281], [-79.9555988, 40.4463799], [-79.9574383, 40.4478857], [-79.9567009, 40.4484374], [-79.9547902, 40.4468683], [-79.9555355, 40.4463281]]]}}, {"type": "Feature", "properties": {"i": 195}, "geometry": {"type": "Polygon", "coordinates": [[[-79.951856, 40.4489974], [-79.9527322, 40.4483658], [-79.9540443, 40.4512886], [-79.9533454, 40.4514934], [-79.951856, 40.4489974]]]}}, {"type": "Feature", "properties": {"i": 196}, "geometry": {"type": "Polygon", "coordinates": [[[-79.9507475, 40.4498042], [-79.951856, 40.4489974], [-79.9533454, 40.4514934], [-79.9520154, 40.4518907], [-79.9507475, 40.4498042]]]}}, {"type": "Feature", "properties": {"i": 197}, "geometry": {"type": "Polygon", "coordinates": [[[-79.9664905, 40.4255955], [-79.9668487, 40.4252803], [-79.9676777, 40.4258099], [-79.9674823, 40.4262289], [-79.9664905, 40.4255955]]]}}, {"type": "Feature", "properties": {"i": 198}, "geometry": {"type": "Polygon", "coordinates": [[[-79.9668487, 40.4252803], [-79.9672034, 40.4249756], [-79.9678692, 40.4253994], [-79.9676777, 40.4258099], [-79.9668487, 40.4252803]]]}}, {"type": "Feature", "properties": {"i": 199}, "geometry": {"type": "Polygon", "coordinates": [[[-79.9541442, 40.4528064], [-79.9533454, 40.4514934], [-79.9546962, 40.4510899], [-79.9549411, 40.4509149], [-79.9541442, 40.4528064]]]}}, {"type": "Feature", "properties": {"i": 200}, "geometry": {"type": "Polygon", "coordinates": [[[-79.9671237, 40.4294158], [-79.966959, 40.4296585], [-79.966085, 40.4293011], [-79.9662747, 40.4290526], [-79.9671237, 40.4294158]]]}}, {"type": "Feature", "properties": {"i": 201}, "geometry": {"type": "Polygon", "coordinates": [[[-79.9676777, 40.4258099], [-79.9678692, 40.4253994], [-79.9691803, 40.4257552], [-79.968984, 40.4261678], [-79.9676777, 40.4258099]]]}}, {"type": "Feature", "properties": {"i": 202}, "geometry": {"type": "Polygon", "coordinates": [[[-79.943347, 40.4518092], [-79.9430274, 40.4508857], [-79.9450328, 40.4504808], [-79.9454092, 40.4513886], [-79.943347, 40.4518092]]]}}, {"type": "Feature", "properties": {"i": 203}, "geometry": {"type": "Polygon", "coordinates": [[[-79.9487445, 40.4503998], [-79.949232, 40.4514944], [-79.9458873, 40.4524882], [-79.9454092, 40.4513886], [-79.9487445, 40.4503998]]]}}, {"type": "Feature", "properties": {"i": 204}, "geometry": {"type": "Polygon", "coordinates": [[[-79.9729907, 40.4504968], [-79.972522, 40.4496329], [-79.9733551, 40.4492763], [-79.9738113, 40.4501533], [-79.9729907, 40.4504968]]]}}, {"type": "Feature", "properties": {"i": 205}, "geometry": {"type": "Polygon", "coordinates": [[[-79.9476798, 40.447987], [-79.9487445, 40.4503998], [-79.9454092, 40.4513886], [-79.9450328, 40.4504808], [-79.9476798, 40.447987]]]}}, {"type": "Feature", "properties": {"i": 206}, "geometry": {"type": "Polygon", "coordinates": [[[-79.9572326, 40.4514708], [-79.9588141, 40.4520033], [-79.9584522, 40.4526919], [-79.9568433, 40.4521525], [-79.9572326, 40.4514708]]]}}, {"type": "Feature", "properties": {"i": 207}, "geometry": {"type": "Polygon", "coordinates": [[[-79.968984, 40.4261678], [-79.9691803, 40.4257552], [-79.9706035, 40.426136], [-79.9704103, 40.426563], [-79.968984, 40.4261678]]]}}, {"type": "Feature", "properties": {"i": 208}, "geometry": {"type": "Polygon", "coordinates": [[[-79.9738113, 40.4501533], [-79.9733551, 40.4492763], [-79.9741741, 40.4489297], [-79.9746542, 40.4497941], [-79.9738113, 40.4501533]]]}}, {"type": "Feature", "properties": {"i": 209}, "geometry": {"type": "Polygon", "coordinates": [[[-79.9375999, 40.431157], [-79.9375684, 40.4307889], [-79.9377046, 40.4306409], [-79.9379512, 40.4306279], [-79.9381078, 40.4307573], [-79.9380982, 40.4309124], [-79.9380265, 40.431012], [-79.9375999, 40.431157]]]}}]}