{"type": "FeatureCollection", "features": [{"type": "Feature", "properties": {"name": "S Craig Street", "hood": "Oakland", "range": [280, 480]}, "geometry": {"type": "LineString", "coordinates": [[-79.9489816, 40.4469408], [-79.9486742, 40.4444446], [-79.9485229, 40.4439881]]}}, {"type": "Feature", "properties": {"name": "N Craig Street", "hood": "North Oakland", "range": [100, 600]}, "geometry": {"type": "LineString", "coordinates": [[-79.95005604337257, 40.4487], [-79.9525, 40.45263844223527]]}}, {"type": "Feature", "properties": {"name": "Forbes Avenue", "hood": "Oakland", "range": [3600, 4000]}, "geometry": {"type": "LineString", "coordinates": [[-79.95911391510089, 40.44], [-79.9553991, 40.442675], [-79.949, 40.44435886851254]]}}, {"type": "Feature", "properties": {"name": "Fifth Avenue", "hood": "Oakland", "range": [3300, 4400]}, "geometry": {"type": "LineString", "coordinates": [[-79.95258583519768, 40.446], [-79.96117137039538, 40.4398]]}}, {"type": "Feature", "properties": {"name": "Atwood Street", "hood": "Oakland", "range": [3400, 3700]}, "geometry": {"type": "LineString", "coordinates": [[-79.955, 40.43897562038462], [-79.958473, 40.4417794]]}}, {"type": "Feature", "properties": {"name": "Oakland Avenue", "hood": "Oakland", "range": [3400, 3700]}, "geometry": {"type": "LineString", "coordinates": [[-79.9535, 40.43876161498526], [-79.9565, 40.441181179839745]]}}, {"type": "Feature", "properties": {"name": "S Bouquet Street", "hood": "Oakland", "range": [3400, 3700]}, "geometry": {"type": "LineString", "coordinates": [[-79.9545, 40.44086563818356], [-79.9515368, 40.439204]]}}, {"type": "Feature", "properties": {"name": "Semple Street", "hood": "South Oakland", "range": [3200, 3700]}, "geometry": {"type": "LineString", "coordinates": [[-79.95794460202846, 40.4395], [-79.9541423, 40.4364274], [-79.954, 40.43640521237227]]}}, {"type": "Feature", "properties": {"name": "Centre Avenue", "hood": "Shadyside", "range": [4700, 5800]}, "geometry": {"type": "LineString", "coordinates": [[-79.951, 40.45219658857285], [-79.93660543528004, 40.4565]]}}, {"type": "Feature", "properties": {"name": "Ellsworth Avenue", "hood": "Shadyside", "range": [5500, 6300]}, "geometry": {"type": "LineString", "coordinates": [[-79.94554346010024, 40.45], [-79.9450328, 40.4504808], [-79.9409421, 40.4513161], [-79.9369486, 40.4526448], [-79.9320151622861, 40.455]]}}, {"type": "Feature", "properties": {"name": "Baum Boulevard", "hood": "Bloomfield", "range": [4700, 5600]}, "geometry": {"type": "LineString", "coordinates": [[-79.94514181498806, 40.455], [-79.934, 40.45830547538632]]}}, {"type": "Feature", "properties": {"name": "Walnut Street", "hood": "Shadyside", "range": [5400, 5880]}, "geometry": {"type": "LineString", "coordinates": [[-79.9355158, 40.4506429], [-79.9295946883502, 40.4525]]}}, {"type": "Feature", "properties": {"name": "Butler Street", "hood": "Lawrenceville", "range": [3500, 4700]}, "geometry": {"type": "LineString", "coordinates": [[-79.96697245461559, 40.463], [-79.9637476, 40.4675826], [-79.96193080204839, 40.469]]}}, {"type": "Feature", "properties": {"name": "E Carson Street", "hood": "South Side", "range": [1000, 2200]}, "geometry": {"type": "LineString", "coordinates": [[-79.986, 40.4287649515553], [-79.9820471, 40.4288552], [-79.9750504, 40.4284345]]}}, {"type": "Feature", "properties": {"name": "Murray Avenue", "hood": "Squirrel Hill", "range": [1900, 2300]}, "geometry": {"type": "LineString", "coordinates": [[-79.92367839981534, 40.443], [-79.9230436, 40.4397817], [-79.9228298, 40.4347529], [-79.92306392496764, 40.433]]}}, {"type": "Feature", "properties": {"name": "Penn Avenue", "hood": "Strip District", "range": [2000, 2900]}, "geometry": {"type": "LineString", "coordinates": [[-79.97687933242435, 40.456], [-79.982, 40.45247190706216]]}}, {"type": "Feature", "properties": {"name": "Liberty Avenue", "hood": "Bloomfield", "range": [4400, 4800]}, "geometry": {"type": "LineString", "coordinates": [[-79.953, 40.46361366058841], [-79.952977, 40.4636176], [-79.9525822, 40.4635392], [-79.94590750672502, 40.46]]}}]}